{
  "norad_id": 58517,
  "name": "STARLINK-31011",
  "history": [
    {
      "epoch": "2026-03-28T18:25:27.424992",
      "apogee_km": 483.9174917456021,
      "perigee_km": 482.19107879440253,
      "latitude_deg": -42.81359488677328,
      "longitude_deg": 105.3971388801001,
      "semi_major_axis_km": 6861.1912852700025,
      "eccentricity": 0.00012581,
      "inclination_deg": 43.001,
      "raan_deg": 355.2953,
      "arg_perigee_deg": 276.7809,
      "mean_anomaly_deg": 83.29,
      "mean_motion_rev_day": 15.27578267
    }
  ]
}